{
  "links": {
    "next": "https://api.nasa.gov/neo/rest/v1/neo/browse?page=1&size=20&api_key=DEMO_KEY",
    "self": "https://api.nasa.gov/neo/rest/v1/neo/browse?page=0&size=20&api_key=DEMO_KEY"
  },
  "page": {
    "size": 20,
    "total_elements": 19055,
    "total_pages": 952,
    "number": 0
  },
  "near_earth_objects": [
    {
      "links": {
        "self": "https://api.nasa.gov/neo/rest/v1/neo/2276274?api_key=DEMO_KEY"
      },
      "neo_reference_id": "2276274",
      "name": "276274 (2002 SS41)",
      "nasa_jpl_url": "http://ssd.jpl.nasa.gov/sbdb.cgi?sstr=2276274",
      "absolute_magnitude_h": 17.2,
      "estimated_diameter": {
        "kilometers": {
          "estimated_diameter_min": 0.9650614696,
          "estimated_diameter_max": 2.1579430484
        },
        "meters": {
          "estimated_diameter_min": 965.0614695789,
          "estimated_diameter_max": 2157.9430484443
        },
        "miles": {
          "estimated_diameter_min": 0.5996612104,
          "estimated_diameter_max": 1.34088323
        },
        "feet": {
          "estimated_diameter_min": 3166.2122718533,
          "estimated_diameter_max": 7079.8658710581
        }
      },
      "is_potentially_hazardous_asteroid": false,
      "close_approach_data": [],
      "orbital_data": {
        "orbit_id": "94",
        "orbit_determination_date": "2015-01-08 11:12:05",
        "orbit_uncertainty": "0",
        "minimum_orbit_intersection": ".600743",
        "jupiter_tisserand_invariant": "2.993",
        "epoch_osculation": "2457600.5",
        "eccentricity": ".3826831275030616",
        "semi_major_axis": "2.104740374542074",
        "inclination": "63.68286998824724",
        "ascending_node_longitude": "190.125241798393",
        "orbital_period": "1115.311614869463",
        "perihelion_distance": "1.299291745430348",
        "perihelion_argument": "101.8029165672748",
        "aphelion_distance": "2.9101890036538",
        "perihelion_time": "2457977.671756231325",
        "mean_anomaly": "238.2565962435808",
        "mean_motion": ".3227797462166075",
        "equinox": "J2000"
      }
    },
    {
      "links": {
        "self": "https://api.nasa.gov/neo/rest/v1/neo/2277473?api_key=DEMO_KEY"
      },
      "neo_reference_id": "2277473",
      "name": "277473 (2005 WD1)",
      "nasa_jpl_url": "http://ssd.jpl.nasa.gov/sbdb.cgi?sstr=2277473",
      "absolute_magnitude_h": 16.9,
      "estimated_diameter": {
        "kilometers": {
          "estimated_diameter_min": 1.1080388213,
          "estimated_diameter_max": 2.4776501261
        },
        "meters": {
          "estimated_diameter_min": 1108.0388212642,
          "estimated_diameter_max": 2477.6501260554
        },
        "miles": {
          "estimated_diameter_min": 0.6885031904,
          "estimated_diameter_max": 1.5395399365
        },
        "feet": {
          "estimated_diameter_min": 3635.2980863563,
          "estimated_diameter_max": 8128.7736395675
        }
      },
      "is_potentially_hazardous_asteroid": false,
      "close_approach_data": [
        {
          "close_approach_date": "1930-08-27",
          "epoch_date_close_approach": -1241712000000,
          "relative_velocity": {
            "kilometers_per_second": "19.2132548783",
            "kilometers_per_hour": "69167.717562029",
            "miles_per_hour": "42978.1298373619"
          },
          "miss_distance": {
            "astronomical": "0.0869169525",
            "lunar": "33.8106956482",
            "kilometers": "13002591",
            "miles": "8079435.5"
          },
          "orbiting_body": "Mars"
        },
        {
          "close_approach_date": "1933-11-01",
          "epoch_date_close_approach": -1141315200000,
          "relative_velocity": {
            "kilometers_per_second": "22.8034770119",
            "kilometers_per_hour": "82092.5172426762",
            "miles_per_hour": "51009.0977278173"
          },
          "miss_distance": {
            "astronomical": "0.4921574292",
            "lunar": "191.4492340088",
            "kilometers": "73625704",
            "miles": "45748892"
          },
          "orbiting_body": "Earth"
        }
      ],
      "orbital_data": {
        "orbit_id": "65",
        "orbit_determination_date": "2017-05-04 06:19:32",
        "orbit_uncertainty": "0",
        "minimum_orbit_intersection": ".496629",
        "jupiter_tisserand_invariant": "3.218",
        "epoch_osculation": "2458200.5",
        "eccentricity": ".4414360530019183",
        "semi_major_axis": "2.199641623983211",
        "inclination": "43.08087379949581",
        "ascending_node_longitude": "52.32318718673017",
        "orbital_period": "1191.588548254371",
        "perihelion_distance": "1.228640507473332",
        "perihelion_argument": "285.8947745856025",
        "aphelion_distance": "3.170642740493089",
        "perihelion_time": "2458286.593419609152",
        "mean_anomaly": "333.9896534716627",
        "mean_motion": ".3021177070956124",
        "equinox": "J2000"
      }
    },
    {
      "links": {
        "self": "https://api.nasa.gov/neo/rest/v1/neo/2305090?api_key=DEMO_KEY"
      },
      "neo_reference_id": "2305090",
      "name": "305090 (2007 VQ4)",
      "nasa_jpl_url": "http://ssd.jpl.nasa.gov/sbdb.cgi?sstr=2305090",
      "absolute_magnitude_h": 16.2,
      "estimated_diameter": {
        "kilometers": {
          "estimated_diameter_min": 1.5295193534,
          "estimated_diameter_max": 3.4201092472
        },
        "meters": {
          "estimated_diameter_min": 1529.5193534422,
          "estimated_diameter_max": 3420.1092471982
        },
        "miles": {
          "estimated_diameter_min": 0.9503989702,
          "estimated_diameter_max": 2.125156703
        },
        "feet": {
          "estimated_diameter_min": 5018.1082755472,
          "estimated_diameter_max": 11220.8312225778
        }
      },
      "is_potentially_hazardous_asteroid": false,
      "close_approach_data": [
        {
          "close_approach_date": "2011-03-01",
          "epoch_date_close_approach": 1298966400000,
          "relative_velocity": {
            "kilometers_per_second": "6.5612739631",
            "kilometers_per_hour": "23620.5862670854",
            "miles_per_hour": "14676.9137280121"
          },
          "miss_distance": {
            "astronomical": "1.9877802308",
            "lunar": "773.2465209961",
            "kilometers": "297367680",
            "miles": "184775712"
          },
          "orbiting_body": "Juptr"
        },
        {
          "close_approach_date": "2165-05-08",
          "epoch_date_close_approach": 6164665200000,
          "relative_velocity": {
            "kilometers_per_second": "6.7705786368",
            "kilometers_per_hour": "24374.0830923688",
            "miles_per_hour": "15145.1073525888"
          },
          "miss_distance": {
            "astronomical": "1.9546625612",
            "lunar": "760.3637084961",
            "kilometers": "292413344",
            "miles": "181697232"
          },
          "orbiting_body": "Juptr"
        }
      ],
      "orbital_data": {
        "orbit_id": "129",
        "orbit_determination_date": "2017-05-31 06:19:03",
        "orbit_uncertainty": "0",
        "minimum_orbit_intersection": ".514533",
        "jupiter_tisserand_invariant": "3.065",
        "epoch_osculation": "2458200.5",
        "eccentricity": ".5155119981299118",
        "semi_major_axis": "2.634811808452012",
        "inclination": "26.62402089338087",
        "ascending_node_longitude": "58.76376139166238",
        "orbital_period": "1562.15034331773",
        "perihelion_distance": "1.276534708380629",
        "perihelion_argument": "100.1643358388149",
        "aphelion_distance": "3.993088908523395",
        "perihelion_time": "2457659.439768467636",
        "mean_anomaly": "124.688180100495",
        "mean_motion": ".2304515705162052",
        "equinox": "J2000"
      }
    }
  ]
}
